{"type": "FeatureCollection", "features": [ {"type": "Feature", "properties": {"norad_id": 34538, "name": "IRIDIUM 33 DEB", "group": "iridium-33-debris", "lat": -78.86987860781055, "lon": -19.41575377695764, "alt_km": 734.2374118393527, "timestamp": "2025-12-25T14:48:25.157970+00:00", "meta": {"OBJECT_NAME": "IRIDIUM 33 DEB", "OBJECT_ID": "1997-051JF", "EPOCH": "2025-12-24T17:48:32.243904", "MEAN_MOTION": 14.42715706, "ECCENTRICITY": 0.00319126, "INCLINATION": 86.2764, "RA_OF_ASC_NODE": 0.2977, "ARG_OF_PERICENTER": 286.3391, "MEAN_ANOMALY": 132.9527, "EPHEMERIS_TYPE": 0, "CLASSIFICATION_TYPE": "U", "NORAD_CAT_ID": 34538, "ELEMENT_SET_NO": 999, "REV_AT_EPOCH": 87929, "BSTAR": 0.00092856968, "MEAN_MOTION_DOT": 3.127e-05, "MEAN_MOTION_DDOT": 0}, "tle": {"line1": "1 34538U 97051JF  25358.74203986  .00003127  00000+0  92857-3 0  9993", "line2": "2 34538  86.2764   0.2977 0031912 286.3391 132.9527 14.42715706879292"}}, "geometry": {"type": "Point", "coordinates": [-19.41575377695764, -78.86987860781055]}}, {"type": "Feature", "properties": {"norad_id": 34540, "name": "IRIDIUM 33 DEB", "group": "iridium-33-debris", "lat": 54.84996232293897, "lon": -53.02402654044571, "alt_km": 632.0468319509055, "timestamp": "2025-12-25T14:48:25.157991+00:00", "meta": {"OBJECT_NAME": "IRIDIUM 33 DEB", "OBJECT_ID": "1997-051JH", "EPOCH": "2025-12-24T20:53:56.859072", "MEAN_MOTION": 14.75561419, "ECCENTRICITY": 0.00182412, "INCLINATION": 86.3113, "RA_OF_ASC_NODE": 302.0602, "ARG_OF_PERICENTER": 118.9915, "MEAN_ANOMALY": 295.2293, "EPHEMERIS_TYPE": 0, "CLASSIFICATION_TYPE": "U", "NORAD_CAT_ID": 34540, "ELEMENT_SET_NO": 999, "REV_AT_EPOCH": 89200, "BSTAR": 0.0016633043, "MEAN_MOTION_DOT": 0.00011395, "MEAN_MOTION_DDOT": 0}, "tle": {"line1": "1 34540U 97051JH  25358.87079698  .00011395  00000+0  16633-2 0  9994", "line2": "2 34540  86.3113 302.0602 0018241 118.9915 295.2293 14.75561419892007"}}, "geometry": {"type": "Point", "coordinates": [-53.02402654044571, 54.84996232293897]}}, {"type": "Feature", "properties": {"norad_id": 34648, "name": "IRIDIUM 33 DEB", "group": "iridium-33-debris", "lat": 51.12771346184503, "lon": 92.25592584505553, "alt_km": 929.6306656751822, "timestamp": "2025-12-25T14:48:25.158000+00:00", "meta": {"OBJECT_NAME": "IRIDIUM 33 DEB", "OBJECT_ID": "1997-051JZ", "EPOCH": "2025-12-24T12:40:05.266272", "MEAN_MOTION": 14.11825085, "ECCENTRICITY": 0.01786115, "INCLINATION": 86.3902, "RA_OF_ASC_NODE": 277.1873, "ARG_OF_PERICENTER": 261.8681, "MEAN_ANOMALY": 96.2208, "EPHEMERIS_TYPE": 0, "CLASSIFICATION_TYPE": "U", "NORAD_CAT_ID": 34648, "ELEMENT_SET_NO": 999, "REV_AT_EPOCH": 85127, "BSTAR": 0.0070051894, "MEAN_MOTION_DOT": 0.00014884, "MEAN_MOTION_DDOT": 0}, "tle": {"line1": "1 34648U 97051JZ  25358.52783873  .00014884  00000+0  70052-2 0  9993", "line2": "2 34648  86.3902 277.1873 0178611 261.8681  96.2208 14.11825085851271"}}, "geometry": {"type": "Point", "coordinates": [92.25592584505553, 51.12771346184503]}}, {"type": "Feature", "properties": {"norad_id": 34651, "name": "IRIDIUM 33 DEB", "group": "iridium-33-debris", "lat": 53.6903806941964, "lon": -49.97585534766003, "alt_km": 718.2087744840337, "timestamp": "2025-12-25T14:48:25.158009+00:00", "meta": {"OBJECT_NAME": "IRIDIUM 33 DEB", "OBJECT_ID": "1997-051KC", "EPOCH": "2025-12-24T09:35:08.604960", "MEAN_MOTION": 14.26001404, "ECCENTRICITY": 0.01420945, "INCLINATION": 86.2832, "RA_OF_ASC_NODE": 135.6173, "ARG_OF_PERICENTER": 167.157, "MEAN_ANOMALY": 193.3304, "EPHEMERIS_TYPE": 0, "CLASSIFICATION_TYPE": "U", "NORAD_CAT_ID": 34651, "ELEMENT_SET_NO": 999, "REV_AT_EPOCH": 86062, "BSTAR": 0.0035190903, "MEAN_MOTION_DOT": 9.36e-05, "MEAN_MOTION_DDOT": 0}, "tle": {"line1": "1 34651U 97051KC  25358.39940515  .00009360  00000+0  35191-2 0  9998", "line2": "2 34651  86.2832 135.6173 0142094 167.1570 193.3304 14.26001404860620"}}, "geometry": {"type": "Point", "coordinates": [-49.97585534766003, 53.6903806941964]}}, {"type": "Feature", "properties": {"norad_id": 34652, "name": "IRIDIUM 33 DEB", "group": "iridium-33-debris", "lat": 53.51508794005936, "lon": -20.756463035506155, "alt_km": 698.3584131461294, "timestamp": "2025-12-25T14:48:25.158017+00:00", "meta": {"OBJECT_NAME": "IRIDIUM 33 DEB", "OBJECT_ID": "1997-051KD", "EPOCH": "2025-12-24T09:41:33.275904", "MEAN_MOTION": 14.6216034, "ECCENTRICITY": 0.0025428, "INCLINATION": 86.3318, "RA_OF_ASC_NODE": 334.8071, "ARG_OF_PERICENTER": 255.3926, "MEAN_ANOMALY": 256.8802, "EPHEMERIS_TYPE": 0, "CLASSIFICATION_TYPE": "U", "NORAD_CAT_ID": 34652, "ELEMENT_SET_NO": 999, "REV_AT_EPOCH": 88654, "BSTAR": 0.00099954348, "MEAN_MOTION_DOT": 5.072e-05, "MEAN_MOTION_DDOT": 0}, "tle": {"line1": "1 34652U 97051KD  25358.40385736  .00005072  00000+0  99954-3 0  9993", "line2": "2 34652  86.3318 334.8071 0025428 255.3926 256.8802 14.62160340886549"}}, "geometry": {"type": "Point", "coordinates": [-20.756463035506155, 53.51508794005936]}}, {"type": "Feature", "properties": {"norad_id": 34690, "name": "IRIDIUM 33 DEB", "group": "iridium-33-debris", "lat": -47.41219916924306, "lon": 27.44133070297015, "alt_km": 710.2490633712241, "timestamp": "2025-12-25T14:48:25.158026+00:00", "meta": {"OBJECT_NAME": "IRIDIUM 33 DEB", "OBJECT_ID": "1997-051KM", "EPOCH": "2025-12-24T20:02:14.768160", "MEAN_MOTION": 14.55137496, "ECCENTRICITY": 0.00094344, "INCLINATION": 86.3772, "RA_OF_ASC_NODE": 31.7337, "ARG_OF_PERICENTER": 348.828, "MEAN_ANOMALY": 189.5757, "EPHEMERIS_TYPE": 0, "CLASSIFICATION_TYPE": "U", "NORAD_CAT_ID": 34690, "ELEMENT_SET_NO": 999, "REV_AT_EPOCH": 88270, "BSTAR": 0.00039831575, "MEAN_MOTION_DOT": 1.741e-05, "MEAN_MOTION_DDOT": 0}, "tle": {"line1": "1 34690U 97051KM  25358.83489315  .00001741  00000+0  39832-3 0  9998", "line2": "2 34690  86.3772  31.7337 0009434 348.8280 189.5757 14.55137496882706"}}, "geometry": {"type": "Point", "coordinates": [27.44133070297015, -47.41219916924306]}}, {"type": "Feature", "properties": {"norad_id": 34693, "name": "IRIDIUM 33 DEB", "group": "iridium-33-debris", "lat": -22.657203643437995, "lon": 118.95943486772137, "alt_km": 484.4709885387456, "timestamp": "2025-12-25T14:48:25.158036+00:00", "meta": {"OBJECT_NAME": "IRIDIUM 33 DEB", "OBJECT_ID": "1997-051KQ", "EPOCH": "2025-12-25T03:00:18.455904", "MEAN_MOTION": 15.31024765, "ECCENTRICITY": 0.00096503, "INCLINATION": 86.304, "RA_OF_ASC_NODE": 297.6587, "ARG_OF_PERICENTER": 31.5304, "MEAN_ANOMALY": 342.4375, "EPHEMERIS_TYPE": 0, "CLASSIFICATION_TYPE": "U", "NORAD_CAT_ID": 34693, "ELEMENT_SET_NO": 999, "REV_AT_EPOCH": 89104, "BSTAR": 0.0050386531, "MEAN_MOTION_DOT": 0.00153987, "MEAN_MOTION_DDOT": 0}, "tle": {"line1": "1 34693U 97051KQ  25359.12521361  .00153987  00000+0  50387-2 0  9999", "line2": "2 34693  86.3040 297.6587 0009650  31.5304 342.4375 15.31024765891042"}}, "geometry": {"type": "Point", "coordinates": [118.95943486772137, -22.657203643437995]}}, {"type": "Feature", "properties": {"norad_id": 34696, "name": "IRIDIUM 33 DEB", "group": "iridium-33-debris", "lat": -27.921962065321807, "lon": -156.44486685985882, "alt_km": 674.7035344102169, "timestamp": "2025-12-25T14:48:25.158055+00:00", "meta": {"OBJECT_NAME": "IRIDIUM 33 DEB", "OBJECT_ID": "1997-051KT", "EPOCH": "2025-12-25T02:40:19.490880", "MEAN_MOTION": 14.65659074, "ECCENTRICITY": 0.00738807, "INCLINATION": 86.1858, "RA_OF_ASC_NODE": 21.7643, "ARG_OF_PERICENTER": 125.9017, "MEAN_ANOMALY": 294.9986, "EPHEMERIS_TYPE": 0, "CLASSIFICATION_TYPE": "U", "NORAD_CAT_ID": 34696, "ELEMENT_SET_NO": 999, "REV_AT_EPOCH": 86854, "BSTAR": 0.0042163681, "MEAN_MOTION_DOT": 0.00023946, "MEAN_MOTION_DDOT": 0}, "tle": {"line1": "1 34696U 97051KT  25359.11133670  .00023946  00000+0  42164-2 0  9998", "line2": "2 34696  86.1858  21.7643 0073880 125.9017 294.9986 14.65659074868545"}}, "geometry": {"type": "Point", "coordinates": [-156.44486685985882, -27.921962065321807]}}, {"type": "Feature", "properties": {"norad_id": 34765, "name": "IRIDIUM 33 DEB", "group": "iridium-33-debris", "lat": 23.51932440527765, "lon": 28.832635018458497, "alt_km": 766.0727255862812, "timestamp": "2025-12-25T14:48:25.158065+00:00", "meta": {"OBJECT_NAME": "IRIDIUM 33 DEB", "OBJECT_ID": "1997-051LJ", "EPOCH": "2025-12-23T02:58:27.844896", "MEAN_MOTION": 14.40490027, "ECCENTRICITY": 0.00166531, "INCLINATION": 86.3383, "RA_OF_ASC_NODE": 28.3053, "ARG_OF_PERICENTER": 176.053, "MEAN_ANOMALY": 247.6854, "EPHEMERIS_TYPE": 0, "CLASSIFICATION_TYPE": "U", "NORAD_CAT_ID": 34765, "ELEMENT_SET_NO": 999, "REV_AT_EPOCH": 87763, "BSTAR": 0.00035770807, "MEAN_MOTION_DOT": 1.159e-05, "MEAN_MOTION_DDOT": 0}, "tle": {"line1": "1 34765U 97051LJ  25357.12393339  .00001159  00000+0  35771-3 0  9993", "line2": "2 34765  86.3383  28.3053 0016653 176.0530 247.6854 14.40490027877630"}}, "geometry": {"type": "Point", "coordinates": [28.832635018458497, 23.51932440527765]}}, {"type": "Feature", "properties": {"norad_id": 34833, "name": "IRIDIUM 33 DEB", "group": "iridium-33-debris", "lat": -38.60027717153413, "lon": 42.5560226031411, "alt_km": 726.1459036764627, "timestamp": "2025-12-25T14:48:25.158074+00:00", "meta": {"OBJECT_NAME": "IRIDIUM 33 DEB", "OBJECT_ID": "1997-051MH", "EPOCH": "2025-12-25T03:41:55.955040", "MEAN_MOTION": 14.52445714, "ECCENTRICITY": 0.00212125, "INCLINATION": 86.392, "RA_OF_ASC_NODE": 45.6427, "ARG_OF_PERICENTER": 60.5009, "MEAN_ANOMALY": 2.6128, "EPHEMERIS_TYPE": 0, "CLASSIFICATION_TYPE": "U", "NORAD_CAT_ID": 34833, "ELEMENT_SET_NO": 999, "REV_AT_EPOCH": 87895, "BSTAR": 0.00071681957, "MEAN_MOTION_DOT": 2.951e-05, "MEAN_MOTION_DDOT": 0}, "tle": {"line1": "1 34833U 97051MH  25359.15411985  .00002951  00000+0  71682-3 0  9994", "line2": "2 34833  86.3920  45.6427 0021212  60.5009   2.6128 14.52445714878950"}}, "geometry": {"type": "Point", "coordinates": [42.5560226031411, -38.60027717153413]}}]}